STARLINK-30572
1 58114U 23161T   25330.18549030  .00000179  00000+0  18182-4 0  9995
2 58114  53.1613 286.3696 0001068  97.2140 262.8982 15.30194226118570